{
  "norad_id": 52309,
  "name": "STARLINK-3756",
  "history": [
    {
      "epoch": "2026-04-30T12:03:33.195456Z",
      "apogee_km": 540.5679625997236,
      "perigee_km": 538.9387994149965,
      "latitude_deg": 1.5373382006706578e-05,
      "longitude_deg": 177.1879065411112,
      "height_km": 540.5989524452636,
      "semi_major_axis_km": 6917.89038100736,
      "eccentricity": 0.00011775,
      "inclination_deg": 53.219,
      "raan_deg": 216.5245,
      "arg_perigee_deg": 86.4417,
      "mean_anomaly_deg": 273.671,
      "mean_motion_rev_day": 15.08836731
    },
    {
      "epoch": "2026-05-02T10:09:44.400384Z",
      "apogee_km": 540.9063867472123,
      "perigee_km": 538.6027288584646,
      "latitude_deg": 5.1030922707873545e-05,
      "longitude_deg": -164.8763442188299,
      "height_km": 540.5633308717108,
      "semi_major_axis_km": 6917.891557802838,
      "eccentricity": 0.0001665,
      "inclination_deg": 53.2177,
      "raan_deg": 207.9003,
      "arg_perigee_deg": 85.6914,
      "mean_anomaly_deg": 274.4269,
      "mean_motion_rev_day": 15.08836346
    },
    {
      "epoch": "2026-05-03T11:35:54.100320Z",
      "apogee_km": 540.5321772270527,
      "perigee_km": 538.9298606365064,
      "latitude_deg": 3.6145115117503604e-05,
      "longitude_deg": 167.78030503364153,
      "height_km": 540.5759164529734,
      "semi_major_axis_km": 6917.868018931779,
      "eccentricity": 0.00011581,
      "inclination_deg": 53.2168,
      "raan_deg": 203.142,
      "arg_perigee_deg": 86.3486,
      "mean_anomaly_deg": 273.7639,
      "mean_motion_rev_day": 15.08844047
    },
    {
      "epoch": "2026-05-04T11:26:41.462592Z",
      "apogee_km": 540.6405441733568,
      "perigee_km": 538.8782792414386,
      "latitude_deg": -6.053147823190748e-05,
      "longitude_deg": 164.6435465692314,
      "height_km": 540.5973042285357,
      "semi_major_axis_km": 6917.896411707397,
      "eccentricity": 0.00012737,
      "inclination_deg": 53.2172,
      "raan_deg": 198.682,
      "arg_perigee_deg": 86.2308,
      "mean_anomaly_deg": 273.8829,
      "mean_motion_rev_day": 15.08834758
    },
    {
      "epoch": "2026-05-05T14:28:14.575008Z",
      "apogee_km": 540.6313634714725,
      "perigee_km": 538.8410178897248,
      "latitude_deg": -3.293741091929756e-05,
      "longitude_deg": 113.09038167372259,
      "height_km": 540.6453797460778,
      "semi_major_axis_km": 6917.873190680598,
      "eccentricity": 0.0001294,
      "inclination_deg": 53.218,
      "raan_deg": 193.6267,
      "arg_perigee_deg": 90.8527,
      "mean_anomaly_deg": 269.2613,
      "mean_motion_rev_day": 15.08842355
    },
    {
      "epoch": "2026-05-06T15:54:25.467264Z",
      "apogee_km": 540.5838180515739,
      "perigee_km": 538.9470423365901,
      "latitude_deg": 3.953988134900791e-05,
      "longitude_deg": 85.74151295969908,
      "height_km": 540.6206354616195,
      "semi_major_axis_km": 6917.902430194082,
      "eccentricity": 0.0001183,
      "inclination_deg": 53.2172,
      "raan_deg": 188.8678,
      "arg_perigee_deg": 87.1482,
      "mean_anomaly_deg": 272.9646,
      "mean_motion_rev_day": 15.08832789
    },
    {
      "epoch": "2026-05-07T20:31:21.883296Z",
      "apogee_km": 540.5063919957265,
      "perigee_km": 539.0024424016283,
      "latitude_deg": 3.475563286445352e-05,
      "longitude_deg": 9.978234506951795,
      "height_km": 540.6198614981811,
      "semi_major_axis_km": 6917.891417198677,
      "eccentricity": 0.0001087,
      "inclination_deg": 53.2165,
      "raan_deg": 183.5148,
      "arg_perigee_deg": 87.6728,
      "mean_anomaly_deg": 272.4389,
      "mean_motion_rev_day": 15.08836392
    }
  ]
}